[{"OBJECT_NAME":"STARLINK-6221","OBJECT_ID":"2023-064AN","EPOCH":"2026-03-09T13:43:58.315008","MEAN_MOTION":14.98334735,"ECCENTRICITY":0.0003403,"INCLINATION":69.999,"RA_OF_ASC_NODE":124.6773,"ARG_OF_PERICENTER":267.1667,"MEAN_ANOMALY":92.9103,"EPHEMERIS_TYPE":0,"CLASSIFICATION_TYPE":"U","NORAD_CAT_ID":56484,"ELEMENT_SET_NO":999,"REV_AT_EPOCH":15571,"BSTAR":4.6007e-5,"MEAN_MOTION_DOT":4.56e-6,"MEAN_MOTION_DDOT":0},{"OBJECT_NAME":"SITRO-AIS 16","OBJECT_ID":"2024-199C","EPOCH":"2026-03-09T22:02:52.039104","MEAN_MOTION":14.97049887,"ECCENTRICITY":0.00080733,"INCLINATION":97.3322,"RA_OF_ASC_NODE":274.4213,"ARG_OF_PERICENTER":52.0818,"MEAN_ANOMALY":308.1134,"EPHEMERIS_TYPE":0,"CLASSIFICATION_TYPE":"U","NORAD_CAT_ID":61737,"ELEMENT_SET_NO":999,"REV_AT_EPOCH":11696,"BSTAR":0.00041232113,"MEAN_MOTION_DOT":4.701e-5,"MEAN_MOTION_DDOT":0}]
